{"type":"FeatureCollection","features":[{"type":"Feature","geometry":{"type":"Polygon","coordinates":[[[7.40903,43.72958],[7.40932,43.72998],[7.40953,43.73012],[7.41002,43.73073],[7.41054,43.73111],[7.41124,43.7314],[7.41136,43.73149],[7.4118,43.73162],[7.41246,43.73156],[7.41291,43.73169],[7.41295,43.73185],[7.41303,43.73257],[7.41311,43.73282],[7.413,43.73308],[7.41267,43.73346],[7.41273,43.73383],[7.41281,43.73397],[7.41229,43.73434],[7.41258,43.7345],[7.41266,43.73467],[7.41409,43.73561],[7.4149,43.73624],[7.41687,43.7374],[7.41948,43.7391],[7.41998,43.73941],[7.42057,43.73974],[7.42076,43.73979],[7.42172,43.74062],[7.4216,43.7407],[7.42186,43.74112],[7.42222,43.74141],[7.42235,43.74136],[7.42297,43.74171],[7.42447,43.74087],[7.42508,43.74155],[7.42529,43.74143],[7.42546,43.74164],[7.42574,43.74176],[7.42599,43.74199],[7.42608,43.74217],[7.42668,43.74265],[7.42679,43.74294],[7.42712,43.7433],[7.42766,43.74359],[7.42806,43.74395],[7.42811,43.74409],[7.42811,43.7445],[7.42839,43.74492],[7.42862,43.74518],[7.42868,43.74548],[7.42858,43.74563],[7.4286,43.74603],[7.42879,43.74656],[7.42929,43.74686],[7.42981,43.74806],[7.43044,43.74823],[7.43051,43.74865],[7.43062,43.74878],[7.43063,43.74898],[7.4311,43.74892],[7.43142,43.74895],[7.43163,43.74887],[7.43191,43.74887],[7.43248,43.74926],[7.43369,43.74949],[7.43479,43.74987],[7.43598,43.74999],[7.4376,43.75121],[7.43732,43.75128],[7.43691,43.75148],[7.43679,43.75162],[7.43689,43.75192],[7.43787,43.75173],[7.43857,43.75134],[7.43867,43.7512],[7.43862,43.75081],[7.43845,43.75057],[7.43844,43.75036],[7.43856,43.7502],[7.4386,43.74988],[7.43836,43.74961],[7.43838,43.74941],[7.43906,43.74919],[7.43938,43.74823],[7.43962,43.7474],[7.43973,43.74717],[7.43987,43.74671],[7.43982,43.74658],[7.43943,43.74636],[7.43892,43.74624],[7.43854,43.7462],[7.43789,43.7463],[7.43753,43.74657],[7.43715,43.74701],[7.43669,43.74765],[7.43638,43.74763],[7.4361,43.74749],[7.43587,43.74706],[7.4362,43.74673],[7.43603,43.74669],[7.43574,43.74683],[7.43535,43.74689],[7.43489,43.74685],[7.43463,43.74677],[7.43427,43.74654],[7.43395,43.74607],[7.43337,43.74593],[7.43302,43.74574],[7.4328,43.74543],[7.43273,43.74501],[7.43294,43.74469],[7.4333,43.74464],[7.43275,43.74443],[7.43261,43.74429],[7.43267,43.74401],[7.43264,43.74363],[7.4325,43.74338],[7.43199,43.74292],[7.43164,43.74256],[7.43081,43.74141],[7.43051,43.74096],[7.4304,43.74037],[7.43069,43.74007],[7.43056,43.73994],[7.43066,43.73978],[7.43044,43.73958],[7.43056,43.73943],[7.43026,43.73916],[7.43036,43.73901],[7.42993,43.7386],[7.43013,43.73828],[7.42968,43.73783],[7.4294,43.73762],[7.43007,43.73643],[7.42978,43.73633],[7.4291,43.73753],[7.42711,43.73712],[7.42744,43.73589],[7.42738,43.73578],[7.42709,43.73574],[7.42695,43.73583],[7.42704,43.73606],[7.42674,43.73718],[7.42567,43.73707],[7.4258,43.73637],[7.42572,43.73636],[7.42561,43.73694],[7.42511,43.73691],[7.42493,43.737],[7.42228,43.73672],[7.42204,43.73639],[7.42189,43.73592],[7.42189,43.73555],[7.42225,43.73544],[7.42244,43.73475],[7.42264,43.73478],[7.4225,43.7353],[7.42257,43.73531],[7.4227,43.73479],[7.42319,43.7349],[7.42305,43.73541],[7.42319,43.73543],[7.42353,43.73412],[7.42341,43.7341],[7.42325,43.73465],[7.42276,43.73458],[7.4229,43.73407],[7.42283,43.73406],[7.42269,43.73457],[7.42252,43.73455],[7.42261,43.7342],[7.42259,43.73407],[7.42271,43.73362],[7.42284,43.73341],[7.42311,43.73319],[7.42336,43.73308],[7.42345,43.73285],[7.42376,43.7328],[7.42451,43.73296],[7.42423,43.73361],[7.42432,43.73362],[7.4246,43.73298],[7.42574,43.73322],[7.42769,43.73362],[7.42742,43.73463],[7.42727,43.73462],[7.42722,43.73485],[7.4273,43.73496],[7.42758,43.735],[7.42771,43.73492],[7.42783,43.73446],[7.42838,43.73414],[7.42889,43.7342],[7.42903,43.73411],[7.43182,43.73656],[7.43209,43.73641],[7.43066,43.73512],[7.42934,43.73395],[7.42945,43.73386],[7.42826,43.73281],[7.42816,43.73226],[7.42823,43.73213],[7.42783,43.7318],[7.42765,43.73133],[7.42767,43.73124],[7.42684,43.73056],[7.42663,43.73053],[7.42615,43.73067],[7.42589,43.73046],[7.42565,43.73041],[7.42502,43.73004],[7.42496,43.72981],[7.42462,43.72978],[7.42424,43.72942],[7.4228,43.72941],[7.42276,43.72861],[7.42253,43.72848],[7.42258,43.72947],[7.42244,43.72954],[7.42222,43.72944],[7.42199,43.72956],[7.42166,43.73017],[7.42124,43.73022],[7.42077,43.72989],[7.42035,43.72988],[7.4201,43.7301],[7.4198,43.73053],[7.41946,43.73077],[7.41868,43.73094],[7.41849,43.73092],[7.41753,43.7303],[7.41772,43.73001],[7.4191,43.73014],[7.41912,43.73007],[7.41856,43.73001],[7.41865,43.72907],[7.41926,43.7291],[7.41931,43.72866],[7.42144,43.72876],[7.42143,43.72851],[7.42173,43.72799],[7.42193,43.7278],[7.42249,43.72751],[7.42321,43.72788],[7.42383,43.72813],[7.42398,43.72796],[7.421,43.72656],[7.41852,43.72476],[7.41561,43.72626],[7.4133,43.72742],[7.41194,43.72815],[7.41065,43.72881],[7.40903,43.72958]]]},"properties":{"code":"98","nom":"Monaco"}}]}