{"type":"FeatureCollection","features":[{"type":"Feature","geometry":{"type":"Polygon","coordinates":[[[2.32801,48.86992],[2.32997,48.86851],[2.33066,48.86819],[2.33173,48.86795],[2.33368,48.86752],[2.33587,48.867],[2.33737,48.86665],[2.34127,48.86573],[2.3451,48.86481],[2.34668,48.86443],[2.35095,48.86341],[2.35016,48.86199],[2.34937,48.86058],[2.34822,48.85852],[2.34756,48.85735],[2.34752,48.85731],[2.34718,48.85716],[2.34705,48.85708],[2.34699,48.85701],[2.3468,48.85671],[2.3461,48.85559],[2.34587,48.85528],[2.34459,48.85405],[2.34286,48.85486],[2.34268,48.85498],[2.34086,48.85656],[2.34037,48.85683],[2.33755,48.85839],[2.33291,48.85935],[2.32991,48.86013],[2.32952,48.86027],[2.32831,48.86074],[2.32707,48.86115],[2.3261,48.86148],[2.32524,48.86173],[2.32474,48.86189],[2.3209,48.86306],[2.32246,48.86505],[2.32254,48.86516],[2.32357,48.8665],[2.32353,48.86651],[2.32459,48.86793],[2.32467,48.86806],[2.32532,48.86901],[2.32516,48.86945],[2.32584,48.86956],[2.32799,48.86993],[2.32801,48.86992]]]},"properties":{"code":"75-1","nom":"Paris 1er – Louvre"}},{"type":"Feature","geometry":{"type":"Polygon","coordinates":[[[2.35095,48.86341],[2.34668,48.86443],[2.3451,48.86481],[2.34127,48.86573],[2.33737,48.86665],[2.33587,48.867],[2.33368,48.86752],[2.33173,48.86795],[2.33066,48.86819],[2.32997,48.86851],[2.32801,48.86992],[2.33208,48.87062],[2.33701,48.87146],[2.3371,48.87147],[2.34004,48.87198],[2.34307,48.87149],[2.34788,48.8707],[2.35263,48.86969],[2.35426,48.86933],[2.35298,48.86703],[2.35253,48.86623],[2.35152,48.86443],[2.35095,48.86341]]]},"properties":{"code":"75-2","nom":"Paris 2e – Bourse"}},{"type":"Feature","geometry":{"type":"Polygon","coordinates":[[[2.36383,48.8675],[2.36425,48.86725],[2.36541,48.86533],[2.36584,48.86461],[2.3667,48.86317],[2.36677,48.86302],[2.36727,48.86095],[2.36747,48.8601],[2.36823,48.85692],[2.36848,48.85583],[2.36851,48.85573],[2.36445,48.85641],[2.3643,48.85646],[2.36283,48.8569],[2.36175,48.85725],[2.3607,48.85769],[2.35937,48.85832],[2.35881,48.8587],[2.3569,48.86007],[2.35347,48.86122],[2.35334,48.86127],[2.35165,48.86165],[2.35016,48.86199],[2.35095,48.86341],[2.35152,48.86443],[2.35253,48.86623],[2.35298,48.86703],[2.35426,48.86933],[2.35612,48.8689],[2.35638,48.86885],[2.35728,48.86871],[2.35901,48.86846],[2.36235,48.86797],[2.36326,48.86784],[2.36383,48.8675]]]},"properties":{"code":"75-3","nom":"Paris 3e – Temple"}},{"type":"Feature","geometry":{"type":"Polygon","coordinates":[[[2.36851,48.85573],[2.369,48.85374],[2.36914,48.85316],[2.36839,48.85155],[2.36731,48.84918],[2.3665,48.84737],[2.36443,48.84614],[2.36249,48.84762],[2.36189,48.84799],[2.36151,48.84823],[2.35982,48.84918],[2.35957,48.84931],[2.35917,48.84948],[2.35887,48.84959],[2.35855,48.84971],[2.35551,48.85069],[2.35371,48.85122],[2.35319,48.8513],[2.35252,48.85139],[2.3516,48.85159],[2.35022,48.85195],[2.34991,48.85204],[2.34964,48.85214],[2.34847,48.85261],[2.34695,48.85329],[2.34459,48.85405],[2.34587,48.85528],[2.3461,48.85559],[2.3468,48.85671],[2.34699,48.85701],[2.34705,48.85708],[2.34718,48.85716],[2.34752,48.85731],[2.34756,48.85735],[2.34822,48.85852],[2.34937,48.86058],[2.35016,48.86199],[2.35165,48.86165],[2.35334,48.86127],[2.35347,48.86122],[2.3569,48.86007],[2.35881,48.8587],[2.35937,48.85832],[2.3607,48.85769],[2.36175,48.85725],[2.36283,48.8569],[2.3643,48.85646],[2.36445,48.85641],[2.36851,48.85573]]]},"properties":{"code":"75-4","nom":"Paris 4e – Hôtel-de-Ville"}},{"type":"Feature","geometry":{"type":"Polygon","coordinates":[[[2.36443,48.84614],[2.36484,48.84584],[2.36603,48.84493],[2.36515,48.84443],[2.36503,48.84435],[2.3649,48.84419],[2.36479,48.84396],[2.36211,48.84035],[2.36182,48.83996],[2.35695,48.83842],[2.35586,48.83807],[2.35272,48.83706],[2.35187,48.8368],[2.35176,48.83678],[2.35166,48.83678],[2.3472,48.83729],[2.347,48.83732],[2.34447,48.83786],[2.34207,48.83836],[2.33974,48.83885],[2.33969,48.83887],[2.33673,48.83965],[2.33679,48.8407],[2.3369,48.8407],[2.33701,48.84072],[2.33712,48.84076],[2.33719,48.84081],[2.3373,48.84093],[2.33777,48.84175],[2.33818,48.8425],[2.33897,48.84396],[2.34026,48.84628],[2.3405,48.84671],[2.34084,48.84735],[2.34147,48.84837],[2.34265,48.85031],[2.34268,48.85036],[2.34383,48.85277],[2.34428,48.85375],[2.34459,48.85405],[2.34695,48.85329],[2.34847,48.85261],[2.34964,48.85214],[2.34991,48.85204],[2.35022,48.85195],[2.3516,48.85159],[2.35252,48.85139],[2.35319,48.8513],[2.35371,48.85122],[2.35551,48.85069],[2.35855,48.84971],[2.35887,48.84959],[2.35917,48.84948],[2.35957,48.84931],[2.35982,48.84918],[2.36151,48.84823],[2.36189,48.84799],[2.36249,48.84762],[2.36443,48.84614]]]},"properties":{"code":"75-5","nom":"Paris 5e – Panthéon"}},{"type":"Feature","geometry":{"type":"Polygon","coordinates":[[[2.34459,48.85405],[2.34428,48.85375],[2.34383,48.85277],[2.34268,48.85036],[2.34265,48.85031],[2.34147,48.84837],[2.34084,48.84735],[2.3405,48.84671],[2.34026,48.84628],[2.33897,48.84396],[2.33818,48.8425],[2.33777,48.84175],[2.3373,48.84093],[2.33719,48.84081],[2.33712,48.84076],[2.33701,48.84072],[2.3369,48.8407],[2.33679,48.8407],[2.33673,48.83965],[2.33381,48.84061],[2.32711,48.84282],[2.32638,48.84306],[2.32471,48.84362],[2.32389,48.84389],[2.32133,48.84474],[2.3202,48.84511],[2.31915,48.84551],[2.31657,48.84682],[2.31804,48.84734],[2.31908,48.84773],[2.31936,48.84785],[2.32008,48.84818],[2.32054,48.84842],[2.32213,48.84925],[2.3229,48.84963],[2.32329,48.84983],[2.32414,48.85023],[2.32527,48.8507],[2.32664,48.85126],[2.32719,48.85163],[2.32842,48.85182],[2.32931,48.85261],[2.32938,48.85274],[2.33043,48.85442],[2.33046,48.85446],[2.3307,48.85496],[2.33084,48.8552],[2.33115,48.85562],[2.33167,48.85631],[2.33275,48.85763],[2.33327,48.85826],[2.33245,48.85851],[2.33291,48.85935],[2.33755,48.85839],[2.34037,48.85683],[2.34086,48.85656],[2.34268,48.85498],[2.34286,48.85486],[2.34459,48.85405]]]},"properties":{"code":"75-6","nom":"Paris 6e – Luxembourg"}},{"type":"Feature","geometry":{"type":"Polygon","coordinates":[[[2.30088,48.85118],[2.29792,48.85307],[2.29575,48.85447],[2.29308,48.85617],[2.29294,48.85627],[2.28984,48.85824],[2.29125,48.85935],[2.29156,48.85961],[2.29178,48.85978],[2.29268,48.86044],[2.29361,48.86112],[2.2942,48.86152],[2.29466,48.86176],[2.29509,48.86196],[2.29601,48.86237],[2.29637,48.86251],[2.29662,48.86259],[2.29705,48.86273],[2.29743,48.86285],[2.29792,48.86298],[2.29895,48.86322],[2.29923,48.86327],[2.29979,48.86335],[2.30007,48.86338],[2.30048,48.86342],[2.30159,48.86347],[2.30562,48.86354],[2.31039,48.86363],[2.31641,48.86373],[2.31847,48.86378],[2.31861,48.86377],[2.31874,48.86374],[2.3209,48.86306],[2.32474,48.86189],[2.32524,48.86173],[2.3261,48.86148],[2.32707,48.86115],[2.32831,48.86074],[2.32952,48.86027],[2.32991,48.86013],[2.33291,48.85935],[2.33245,48.85851],[2.33327,48.85826],[2.33275,48.85763],[2.33167,48.85631],[2.33115,48.85562],[2.33084,48.8552],[2.3307,48.85496],[2.33046,48.85446],[2.33043,48.85442],[2.32938,48.85274],[2.32931,48.85261],[2.32842,48.85182],[2.32719,48.85163],[2.32664,48.85126],[2.32527,48.8507],[2.32414,48.85023],[2.32329,48.84983],[2.3229,48.84963],[2.32213,48.84925],[2.32054,48.84842],[2.32008,48.84818],[2.31936,48.84785],[2.31908,48.84773],[2.31804,48.84734],[2.31657,48.84682],[2.3161,48.84666],[2.31373,48.84593],[2.31163,48.84728],[2.31126,48.84751],[2.31053,48.84799],[2.30804,48.84739],[2.30734,48.84714],[2.30615,48.8479],[2.30379,48.84941],[2.30096,48.85123],[2.30088,48.85118]]]},"properties":{"code":"75-7","nom":"Paris 7e – Palais-Bourbon"}},{"type":"Feature","geometry":{"type":"Polygon","coordinates":[[[2.32584,48.86956],[2.32516,48.86945],[2.32532,48.86901],[2.32467,48.86806],[2.32459,48.86793],[2.32353,48.86651],[2.32357,48.8665],[2.32254,48.86516],[2.32246,48.86505],[2.3209,48.86306],[2.31874,48.86374],[2.31861,48.86377],[2.31847,48.86378],[2.31641,48.86373],[2.31039,48.86363],[2.30562,48.86354],[2.30159,48.86347],[2.30152,48.86452],[2.3002,48.86506],[2.2999,48.86533],[2.29934,48.86714],[2.29891,48.86856],[2.2983,48.86961],[2.29753,48.87093],[2.29749,48.87097],[2.29511,48.87369],[2.29504,48.87378],[2.29517,48.87396],[2.29798,48.87783],[2.29816,48.87808],[2.30097,48.87868],[2.30551,48.87966],[2.30861,48.88032],[2.30914,48.88042],[2.31163,48.88072],[2.3165,48.88132],[2.31666,48.88133],[2.32045,48.88211],[2.32054,48.88212],[2.32329,48.88268],[2.32718,48.88348],[2.32706,48.88082],[2.32702,48.87962],[2.32695,48.87785],[2.32685,48.87563],[2.32658,48.87558],[2.32705,48.87374],[2.32685,48.87328],[2.32675,48.87314],[2.32609,48.87057],[2.32584,48.86956]]]},"properties":{"code":"75-8","nom":"Paris 8e – Élysée"}},{"type":"Feature","geometry":{"type":"Polygon","coordinates":[[[2.34951,48.88373],[2.34959,48.88349],[2.34971,48.88222],[2.34983,48.88109],[2.34986,48.88063],[2.34952,48.87969],[2.34952,48.87967],[2.34929,48.87905],[2.3492,48.87855],[2.34911,48.87748],[2.34866,48.87663],[2.34832,48.87602],[2.34825,48.87579],[2.34791,48.87402],[2.3479,48.87201],[2.34788,48.8707],[2.34307,48.87149],[2.34004,48.87198],[2.3371,48.87147],[2.33701,48.87146],[2.33208,48.87062],[2.32801,48.86992],[2.32799,48.86993],[2.32584,48.86956],[2.32609,48.87057],[2.32675,48.87314],[2.32685,48.87328],[2.32705,48.87374],[2.32658,48.87558],[2.32685,48.87563],[2.32695,48.87785],[2.32702,48.87962],[2.32706,48.88082],[2.32718,48.88348],[2.32743,48.88352],[2.32784,48.88361],[2.32814,48.88371],[2.32944,48.88455],[2.33244,48.88385],[2.33269,48.88377],[2.33705,48.88247],[2.3373,48.8824],[2.33782,48.88231],[2.33982,48.88202],[2.3439,48.88282],[2.34445,48.88293],[2.34695,48.88342],[2.34951,48.88373]]]},"properties":{"code":"75-9","nom":"Paris 9e – Opéra"}},{"type":"Feature","geometry":{"type":"Polygon","coordinates":[[[2.36469,48.88437],[2.36811,48.88414],[2.36839,48.88409],[2.36858,48.88402],[2.3687,48.88396],[2.3688,48.88387],[2.36886,48.88377],[2.36891,48.88363],[2.36897,48.88351],[2.36904,48.8834],[2.36912,48.88331],[2.36928,48.88317],[2.36955,48.88302],[2.36997,48.88285],[2.37015,48.88276],[2.37022,48.88265],[2.37024,48.88149],[2.37025,48.88012],[2.37028,48.87799],[2.37211,48.87639],[2.37478,48.87404],[2.37512,48.87376],[2.37699,48.87206],[2.37692,48.87204],[2.37424,48.87109],[2.37401,48.87098],[2.3736,48.87081],[2.37309,48.87063],[2.36964,48.86957],[2.36933,48.86946],[2.36832,48.86907],[2.36761,48.86883],[2.36739,48.86876],[2.36635,48.86847],[2.36552,48.8682],[2.36383,48.8675],[2.36326,48.86784],[2.36235,48.86797],[2.35901,48.86846],[2.35728,48.86871],[2.35638,48.86885],[2.35612,48.8689],[2.35426,48.86933],[2.35263,48.86969],[2.34788,48.8707],[2.3479,48.87201],[2.34791,48.87402],[2.34825,48.87579],[2.34832,48.87602],[2.34866,48.87663],[2.34911,48.87748],[2.3492,48.87855],[2.34929,48.87905],[2.34952,48.87967],[2.34952,48.87969],[2.34986,48.88063],[2.34983,48.88109],[2.34971,48.88222],[2.34959,48.88349],[2.34951,48.88373],[2.35097,48.88384],[2.35412,48.88407],[2.35566,48.88417],[2.35894,48.88441],[2.3593,48.88443],[2.36398,48.88439],[2.36434,48.88439],[2.36469,48.88437]]]},"properties":{"code":"75-10","nom":"Paris 10e – Entrepôt"}},{"type":"Feature","geometry":{"type":"Polygon","coordinates":[[[2.39912,48.8481],[2.39592,48.84838],[2.39436,48.84861],[2.3901,48.84926],[2.38949,48.84935],[2.38434,48.85013],[2.38378,48.85021],[2.38157,48.85039],[2.38012,48.85045],[2.37882,48.85063],[2.37777,48.85089],[2.37379,48.85187],[2.37355,48.85193],[2.37197,48.8524],[2.37174,48.85248],[2.37151,48.85258],[2.3713,48.85268],[2.37091,48.85291],[2.3704,48.85323],[2.37028,48.85326],[2.36914,48.85316],[2.369,48.85374],[2.36851,48.85573],[2.36848,48.85583],[2.36823,48.85692],[2.36747,48.8601],[2.36727,48.86095],[2.36677,48.86302],[2.3667,48.86317],[2.36584,48.86461],[2.36541,48.86533],[2.36425,48.86725],[2.36383,48.8675],[2.36552,48.8682],[2.36635,48.86847],[2.36739,48.86876],[2.36761,48.86883],[2.36832,48.86907],[2.36933,48.86946],[2.36964,48.86957],[2.37309,48.87063],[2.3736,48.87081],[2.37401,48.87098],[2.37424,48.87109],[2.37692,48.87204],[2.37699,48.87206],[2.37798,48.87109],[2.37836,48.87079],[2.38063,48.86901],[2.38308,48.86718],[2.38346,48.86645],[2.38475,48.86531],[2.3873,48.86309],[2.38744,48.86291],[2.38752,48.86276],[2.38837,48.861],[2.38952,48.8586],[2.38963,48.8585],[2.3898,48.85843],[2.39227,48.85769],[2.39444,48.85657],[2.39507,48.85564],[2.39608,48.85435],[2.39843,48.85135],[2.39874,48.85041],[2.39895,48.84978],[2.39926,48.84884],[2.39912,48.8481]]]},"properties":{"code":"75-11","nom":"Paris 11e – Popincourt"}},{"type":"Feature","geometry":{"type":"Polygon","coordinates":[[[2.39026,48.82573],[2.38759,48.82758],[2.38728,48.82781],[2.38693,48.82806],[2.38516,48.82958],[2.38445,48.83016],[2.38442,48.83021],[2.38099,48.83291],[2.37893,48.83449],[2.37708,48.83601],[2.37481,48.83811],[2.37309,48.83967],[2.37255,48.84007],[2.37212,48.84039],[2.36918,48.84255],[2.36603,48.84493],[2.36484,48.84584],[2.36443,48.84614],[2.3665,48.84737],[2.36731,48.84918],[2.36839,48.85155],[2.36914,48.85316],[2.37028,48.85326],[2.3704,48.85323],[2.37091,48.85291],[2.3713,48.85268],[2.37151,48.85258],[2.37174,48.85248],[2.37197,48.8524],[2.37355,48.85193],[2.37379,48.85187],[2.37777,48.85089],[2.37882,48.85063],[2.38012,48.85045],[2.38157,48.85039],[2.38378,48.85021],[2.38434,48.85013],[2.38949,48.84935],[2.3901,48.84926],[2.39436,48.84861],[2.39592,48.84838],[2.39912,48.8481],[2.40345,48.84772],[2.40631,48.84744],[2.40945,48.84719],[2.41116,48.84703],[2.41361,48.84682],[2.41599,48.84661],[2.41569,48.84511],[2.41461,48.84162],[2.41451,48.84129],[2.41351,48.83788],[2.41227,48.83455],[2.41122,48.83386],[2.41175,48.83376],[2.41227,48.83369],[2.41279,48.83363],[2.41314,48.8336],[2.4135,48.83358],[2.41388,48.83357],[2.41439,48.83358],[2.41477,48.8336],[2.41526,48.83364],[2.41584,48.83372],[2.41628,48.83379],[2.41656,48.83385],[2.41699,48.83395],[2.4174,48.83406],[2.41887,48.83452],[2.42225,48.83569],[2.42174,48.83658],[2.42161,48.83686],[2.42155,48.83706],[2.42129,48.83826],[2.42086,48.83962],[2.42042,48.8405],[2.42023,48.84073],[2.41986,48.84107],[2.41957,48.84153],[2.41942,48.84248],[2.41952,48.84267],[2.41959,48.84275],[2.41972,48.84284],[2.41985,48.84299],[2.4199,48.84309],[2.41992,48.84323],[2.41988,48.84343],[2.42211,48.8445],[2.4223,48.8444],[2.42249,48.84427],[2.42268,48.84409],[2.4228,48.84396],[2.42296,48.84374],[2.42321,48.84338],[2.4237,48.84269],[2.42444,48.84203],[2.42456,48.84195],[2.4248,48.8419],[2.42474,48.84177],[2.42505,48.84173],[2.43364,48.84099],[2.43368,48.84119],[2.43719,48.84089],[2.43794,48.84457],[2.44051,48.84435],[2.44062,48.84489],[2.44081,48.84487],[2.44087,48.84521],[2.44069,48.84521],[2.44077,48.84592],[2.44653,48.84575],[2.44655,48.84573],[2.44641,48.84493],[2.44938,48.84464],[2.45162,48.84431],[2.45311,48.8441],[2.45807,48.84345],[2.46062,48.84297],[2.46099,48.84289],[2.46152,48.84276],[2.46186,48.84266],[2.46221,48.84255],[2.46254,48.84244],[2.4631,48.84223],[2.46348,48.84208],[2.46372,48.84197],[2.46408,48.84179],[2.46442,48.84161],[2.46483,48.84134],[2.46517,48.84111],[2.46566,48.84074],[2.46597,48.84048],[2.46612,48.84035],[2.4664,48.84009],[2.46652,48.83997],[2.46724,48.83908],[2.46845,48.83788],[2.46931,48.83711],[2.46945,48.83696],[2.46952,48.83687],[2.4697,48.83659],[2.46976,48.83645],[2.46976,48.83638],[2.46971,48.83556],[2.46953,48.83495],[2.46946,48.83477],[2.4694,48.83463],[2.46929,48.83445],[2.46906,48.83413],[2.46891,48.83396],[2.46879,48.83384],[2.46865,48.83372],[2.46851,48.83362],[2.46829,48.83349],[2.46804,48.83335],[2.46769,48.83322],[2.46673,48.83272],[2.46646,48.83255],[2.4663,48.83243],[2.46606,48.83223],[2.46582,48.832],[2.46561,48.83175],[2.46548,48.83158],[2.46537,48.83142],[2.46525,48.8312],[2.46514,48.83093],[2.46507,48.83073],[2.46464,48.82936],[2.46452,48.82861],[2.46455,48.82794],[2.46461,48.82763],[2.46509,48.82754],[2.46523,48.82767],[2.46543,48.82757],[2.46618,48.82733],[2.46576,48.82628],[2.46536,48.825],[2.46515,48.82499],[2.46525,48.8245],[2.46472,48.82328],[2.46467,48.82327],[2.46291,48.8202],[2.46264,48.81934],[2.46252,48.81927],[2.46281,48.81908],[2.4628,48.81903],[2.45977,48.81754],[2.4592,48.81733],[2.45925,48.81724],[2.45863,48.81701],[2.45715,48.81702],[2.45455,48.81714],[2.45321,48.81725],[2.45083,48.81781],[2.44964,48.81796],[2.44762,48.81803],[2.44267,48.81796],[2.44214,48.81798],[2.44164,48.81804],[2.44009,48.81834],[2.4398,48.81837],[2.4395,48.81836],[2.43735,48.81822],[2.43739,48.8186],[2.43747,48.8191],[2.43733,48.8192],[2.43701,48.81935],[2.4368,48.81942],[2.43642,48.81953],[2.43609,48.81959],[2.43594,48.8196],[2.43518,48.81965],[2.43509,48.81964],[2.43482,48.81954],[2.4345,48.81937],[2.43432,48.81939],[2.43418,48.81928],[2.4343,48.82016],[2.43248,48.82142],[2.43289,48.82169],[2.43262,48.8219],[2.43219,48.82162],[2.43037,48.82288],[2.43069,48.82323],[2.43033,48.82337],[2.42998,48.82349],[2.42969,48.82358],[2.42939,48.82367],[2.42907,48.82375],[2.42874,48.82383],[2.42841,48.8239],[2.42797,48.82399],[2.42753,48.82406],[2.4271,48.82412],[2.42673,48.82416],[2.42624,48.82421],[2.42575,48.82424],[2.4254,48.82426],[2.42491,48.82427],[2.42442,48.82427],[2.42394,48.82426],[2.42138,48.82414],[2.42068,48.82413],[2.42027,48.82413],[2.41997,48.82415],[2.41949,48.82421],[2.41918,48.82427],[2.41884,48.82434],[2.41826,48.82449],[2.41755,48.82466],[2.41707,48.82474],[2.41679,48.82478],[2.41644,48.82482],[2.41603,48.82485],[2.41557,48.82486],[2.41505,48.82486],[2.4146,48.82485],[2.41417,48.82481],[2.41387,48.8248],[2.41356,48.82479],[2.4132,48.82479],[2.41284,48.8248],[2.41252,48.82482],[2.41216,48.82485],[2.41163,48.82491],[2.41122,48.82498],[2.41075,48.82506],[2.41039,48.82515],[2.40999,48.82528],[2.40967,48.8254],[2.40926,48.82558],[2.40877,48.82583],[2.4085,48.82598],[2.40824,48.82613],[2.40778,48.82642],[2.40734,48.82673],[2.40709,48.82691],[2.40663,48.82727],[2.4064,48.82744],[2.40545,48.82815],[2.40517,48.82835],[2.40488,48.82854],[2.40444,48.82881],[2.40423,48.82892],[2.4039,48.82908],[2.40362,48.8292],[2.40311,48.82941],[2.40249,48.82965],[2.39572,48.82773],[2.39435,48.82751],[2.39026,48.82573]]]},"properties":{"code":"75-12","nom":"Paris 12e – Reuilly"}},{"type":"Feature","geometry":{"type":"Polygon","coordinates":[[[2.39026,48.82573],[2.38977,48.82552],[2.38882,48.82501],[2.38152,48.82241],[2.38076,48.8217],[2.37653,48.8203],[2.37294,48.81913],[2.36869,48.81773],[2.3634,48.81606],[2.35592,48.81597],[2.3524,48.81853],[2.34692,48.81586],[2.34443,48.81611],[2.3445,48.81558],[2.34397,48.81577],[2.34407,48.81742],[2.3441,48.81763],[2.34414,48.81779],[2.34463,48.81954],[2.34388,48.82036],[2.34268,48.82119],[2.34204,48.82209],[2.34173,48.82269],[2.34144,48.82367],[2.34152,48.82463],[2.34169,48.82604],[2.34162,48.827],[2.34163,48.82788],[2.34162,48.82812],[2.34157,48.82853],[2.3415,48.82881],[2.34135,48.8294],[2.34126,48.83028],[2.34121,48.83139],[2.34115,48.83179],[2.34114,48.83249],[2.34127,48.83312],[2.34159,48.83481],[2.34189,48.83683],[2.34207,48.83836],[2.34447,48.83786],[2.347,48.83732],[2.3472,48.83729],[2.35166,48.83678],[2.35176,48.83678],[2.35187,48.8368],[2.35272,48.83706],[2.35586,48.83807],[2.35695,48.83842],[2.36182,48.83996],[2.36211,48.84035],[2.36479,48.84396],[2.3649,48.84419],[2.36503,48.84435],[2.36515,48.84443],[2.36603,48.84493],[2.36918,48.84255],[2.37212,48.84039],[2.37255,48.84007],[2.37309,48.83967],[2.37481,48.83811],[2.37708,48.83601],[2.37893,48.83449],[2.38099,48.83291],[2.38442,48.83021],[2.38445,48.83016],[2.38516,48.82958],[2.38693,48.82806],[2.38728,48.82781],[2.38759,48.82758],[2.39026,48.82573]]]},"properties":{"code":"75-13","nom":"Paris 13e – Gobelins"}},{"type":"Feature","geometry":{"type":"Polygon","coordinates":[[[2.33673,48.83965],[2.33969,48.83887],[2.33974,48.83885],[2.34207,48.83836],[2.34189,48.83683],[2.34159,48.83481],[2.34127,48.83312],[2.34114,48.83249],[2.34115,48.83179],[2.34121,48.83139],[2.34126,48.83028],[2.34135,48.8294],[2.3415,48.82881],[2.34157,48.82853],[2.34162,48.82812],[2.34163,48.82788],[2.34162,48.827],[2.34169,48.82604],[2.34152,48.82463],[2.34144,48.82367],[2.34173,48.82269],[2.34204,48.82209],[2.34268,48.82119],[2.34388,48.82036],[2.34463,48.81954],[2.34414,48.81779],[2.3441,48.81763],[2.34407,48.81742],[2.34397,48.81577],[2.34308,48.81609],[2.34171,48.81634],[2.33373,48.81676],[2.33175,48.81704],[2.33237,48.81822],[2.3302,48.81869],[2.32537,48.81977],[2.32039,48.82088],[2.31559,48.82195],[2.31098,48.82297],[2.30624,48.82401],[2.30166,48.82505],[2.3012,48.82515],[2.30519,48.82842],[2.30618,48.82922],[2.30713,48.82998],[2.3085,48.83108],[2.30984,48.83223],[2.3108,48.83303],[2.3129,48.83476],[2.31993,48.84052],[2.32137,48.83978],[2.32184,48.84017],[2.32149,48.84101],[2.3216,48.8411],[2.32257,48.84189],[2.32471,48.84362],[2.32638,48.84306],[2.32711,48.84282],[2.33381,48.84061],[2.33673,48.83965]]]},"properties":{"code":"75-14","nom":"Paris 14e – Observatoire"}},{"type":"Feature","geometry":{"type":"Polygon","coordinates":[[[2.30088,48.85118],[2.30096,48.85123],[2.30375,48.84944],[2.30615,48.8479],[2.30734,48.84714],[2.30804,48.84739],[2.31053,48.84799],[2.31126,48.84751],[2.31163,48.84728],[2.31373,48.84593],[2.3161,48.84666],[2.31657,48.84682],[2.31915,48.84551],[2.3202,48.84511],[2.32133,48.84474],[2.32389,48.84389],[2.32471,48.84362],[2.32257,48.84189],[2.3216,48.8411],[2.32149,48.84101],[2.32184,48.84017],[2.32137,48.83978],[2.31993,48.84052],[2.3129,48.83476],[2.3108,48.83303],[2.30984,48.83223],[2.3085,48.83108],[2.30713,48.82998],[2.30618,48.82922],[2.30519,48.82842],[2.3012,48.82515],[2.29707,48.82605],[2.29222,48.82714],[2.28332,48.83088],[2.27903,48.83246],[2.27551,48.82959],[2.27274,48.82793],[2.26783,48.82784],[2.26763,48.82796],[2.26732,48.83149],[2.26734,48.83153],[2.26761,48.83172],[2.2686,48.83228],[2.26965,48.83286],[2.27004,48.833],[2.26785,48.83456],[2.2673,48.83465],[2.26296,48.8339],[2.26517,48.83617],[2.26759,48.83852],[2.26978,48.84087],[2.27095,48.84208],[2.27157,48.84273],[2.27225,48.84341],[2.27344,48.84461],[2.27571,48.84696],[2.27699,48.84805],[2.27916,48.84977],[2.27996,48.85036],[2.283,48.85249],[2.28436,48.85345],[2.28599,48.85462],[2.28791,48.85598],[2.28811,48.85612],[2.28834,48.85653],[2.28859,48.85694],[2.28885,48.85734],[2.28894,48.85746],[2.28913,48.85766],[2.28984,48.85824],[2.29294,48.85627],[2.29308,48.85617],[2.29575,48.85447],[2.29792,48.85307],[2.30088,48.85118]]]},"properties":{"code":"75-15","nom":"Paris 15e – Vaugirard"}},{"type":"Feature","geometry":{"type":"Polygon","coordinates":[[[2.2798,48.87865],[2.28335,48.87749],[2.28393,48.87731],[2.28719,48.87628],[2.2892,48.87563],[2.29049,48.87522],[2.293,48.87442],[2.29504,48.87378],[2.29511,48.87369],[2.29749,48.87097],[2.29753,48.87093],[2.2983,48.86961],[2.29891,48.86856],[2.29934,48.86714],[2.2999,48.86533],[2.3002,48.86506],[2.30152,48.86452],[2.30159,48.86347],[2.30048,48.86342],[2.30007,48.86338],[2.29979,48.86335],[2.29923,48.86327],[2.29895,48.86322],[2.29792,48.86298],[2.29743,48.86285],[2.29705,48.86273],[2.29662,48.86259],[2.29637,48.86251],[2.29601,48.86237],[2.29509,48.86196],[2.29466,48.86176],[2.2942,48.86152],[2.29361,48.86112],[2.29268,48.86044],[2.29178,48.85978],[2.29156,48.85961],[2.29125,48.85935],[2.28984,48.85824],[2.28913,48.85766],[2.28894,48.85746],[2.28885,48.85734],[2.28859,48.85694],[2.28834,48.85653],[2.28811,48.85612],[2.28791,48.85598],[2.28599,48.85462],[2.28436,48.85345],[2.283,48.85249],[2.27996,48.85036],[2.27916,48.84977],[2.27699,48.84805],[2.27571,48.84696],[2.27344,48.84461],[2.27225,48.84341],[2.27157,48.84273],[2.27095,48.84208],[2.26978,48.84087],[2.26759,48.83852],[2.26517,48.83617],[2.26296,48.8339],[2.25515,48.83481],[2.25165,48.83891],[2.25122,48.8429],[2.25254,48.84558],[2.25066,48.84563],[2.25042,48.84569],[2.24247,48.84773],[2.24174,48.84837],[2.24034,48.84957],[2.2401,48.84976],[2.23997,48.84984],[2.2398,48.84993],[2.2396,48.85002],[2.23931,48.85011],[2.23746,48.85052],[2.2266,48.85291],[2.22415,48.85344],[2.22408,48.85396],[2.22414,48.85505],[2.22433,48.85595],[2.22498,48.85782],[2.22575,48.85971],[2.22641,48.86096],[2.22683,48.86165],[2.22729,48.86257],[2.22825,48.86516],[2.22865,48.86576],[2.22994,48.86725],[2.23062,48.86799],[2.23212,48.86955],[2.23592,48.87062],[2.23739,48.87102],[2.2394,48.8715],[2.2397,48.87158],[2.23998,48.87167],[2.24023,48.87177],[2.24039,48.87186],[2.24059,48.87197],[2.24082,48.87212],[2.24109,48.87231],[2.24127,48.87244],[2.24335,48.87412],[2.24562,48.87636],[2.25482,48.87408],[2.25541,48.87426],[2.25841,48.8801],[2.25888,48.88028],[2.27043,48.87884],[2.27098,48.87877],[2.27749,48.87796],[2.2798,48.87865]]]},"properties":{"code":"75-16","nom":"Paris 16e – Passy"}},{"type":"Feature","geometry":{"type":"Polygon","coordinates":[[[2.29504,48.87378],[2.293,48.87442],[2.29049,48.87522],[2.2892,48.87563],[2.28719,48.87628],[2.28393,48.87731],[2.28335,48.87749],[2.2798,48.87865],[2.27996,48.8787],[2.28019,48.87969],[2.28039,48.88052],[2.28091,48.88288],[2.28566,48.88657],[2.29154,48.88945],[2.29506,48.88987],[2.29857,48.89171],[2.30295,48.89377],[2.3075,48.89594],[2.31227,48.89774],[2.31852,48.89963],[2.32039,48.90076],[2.32639,48.90097],[2.33015,48.90104],[2.32946,48.89899],[2.32898,48.89763],[2.32829,48.89556],[2.32744,48.89306],[2.32662,48.89058],[2.32591,48.88853],[2.32559,48.8875],[2.32636,48.88583],[2.32743,48.88352],[2.32718,48.88348],[2.32329,48.88268],[2.32054,48.88212],[2.32045,48.88211],[2.31666,48.88133],[2.3165,48.88132],[2.31163,48.88072],[2.30914,48.88042],[2.30861,48.88032],[2.30551,48.87966],[2.30097,48.87868],[2.29816,48.87808],[2.29798,48.87783],[2.29517,48.87396],[2.29504,48.87378]]]},"properties":{"code":"75-17","nom":"Paris 17e – Batignolles-Monceau"}},{"type":"Feature","geometry":{"type":"Polygon","coordinates":[[[2.36469,48.88437],[2.36434,48.88439],[2.36398,48.88439],[2.3593,48.88443],[2.35894,48.88441],[2.35566,48.88417],[2.35412,48.88407],[2.35097,48.88384],[2.34951,48.88373],[2.34695,48.88342],[2.34445,48.88293],[2.3439,48.88282],[2.33982,48.88202],[2.33782,48.88231],[2.3373,48.8824],[2.33705,48.88247],[2.33269,48.88377],[2.33244,48.88385],[2.32944,48.88455],[2.32814,48.88371],[2.32784,48.88361],[2.32743,48.88352],[2.32636,48.88583],[2.32559,48.8875],[2.32591,48.88853],[2.32662,48.89058],[2.32744,48.89306],[2.32829,48.89556],[2.32898,48.89763],[2.32946,48.89899],[2.33015,48.90104],[2.33151,48.90106],[2.33647,48.90118],[2.34151,48.90128],[2.3465,48.90138],[2.3515,48.90148],[2.35658,48.90158],[2.36209,48.90169],[2.3674,48.9018],[2.37029,48.90186],[2.37019,48.90167],[2.37017,48.90157],[2.37017,48.90143],[2.37021,48.90087],[2.37022,48.90039],[2.37025,48.89985],[2.3703,48.89833],[2.37033,48.8977],[2.37039,48.89663],[2.37126,48.89592],[2.3713,48.8958],[2.37179,48.89541],[2.37052,48.89464],[2.37002,48.89403],[2.36952,48.89292],[2.36831,48.89008],[2.36813,48.8897],[2.36758,48.88865],[2.36679,48.88664],[2.36619,48.88596],[2.36469,48.88437]]]},"properties":{"code":"75-18","nom":"Paris 18e – Buttes-Montmartre"}},{"type":"Feature","geometry":{"type":"Polygon","coordinates":[[[2.41084,48.87842],[2.40808,48.87763],[2.40694,48.87722],[2.40646,48.87714],[2.40597,48.87701],[2.40257,48.87601],[2.39933,48.87557],[2.39893,48.87548],[2.39794,48.87545],[2.3973,48.87543],[2.39533,48.87525],[2.39353,48.87535],[2.39305,48.87537],[2.39177,48.87546],[2.3904,48.87545],[2.38978,48.87534],[2.38898,48.87497],[2.38855,48.87479],[2.38821,48.87471],[2.38744,48.87467],[2.38693,48.87464],[2.38677,48.8746],[2.3863,48.87441],[2.38521,48.87386],[2.38492,48.87375],[2.38445,48.87365],[2.3831,48.87348],[2.38223,48.87334],[2.3819,48.87327],[2.38059,48.87301],[2.3802,48.87292],[2.37955,48.87277],[2.37897,48.87261],[2.37699,48.87206],[2.37512,48.87376],[2.37478,48.87404],[2.37211,48.87639],[2.37028,48.87799],[2.37025,48.88012],[2.37024,48.88149],[2.37022,48.88265],[2.37015,48.88276],[2.36997,48.88285],[2.36955,48.88302],[2.36928,48.88317],[2.36912,48.88331],[2.36904,48.8834],[2.36897,48.88351],[2.36891,48.88363],[2.36886,48.88377],[2.3688,48.88387],[2.3687,48.88396],[2.36858,48.88402],[2.36839,48.88409],[2.36811,48.88414],[2.36469,48.88437],[2.36619,48.88596],[2.36679,48.88664],[2.36758,48.88865],[2.36813,48.8897],[2.36831,48.89008],[2.36952,48.89292],[2.37002,48.89403],[2.37052,48.89464],[2.37179,48.89541],[2.3713,48.8958],[2.37126,48.89592],[2.37039,48.89663],[2.37033,48.8977],[2.3703,48.89833],[2.37025,48.89985],[2.37022,48.90039],[2.37021,48.90087],[2.37017,48.90143],[2.37017,48.90157],[2.37019,48.90167],[2.37029,48.90186],[2.37839,48.90203],[2.38444,48.90216],[2.39071,48.90098],[2.39552,48.89826],[2.39777,48.89461],[2.39862,48.89135],[2.39919,48.88823],[2.39921,48.88542],[2.40011,48.88381],[2.40149,48.88262],[2.40463,48.88123],[2.40934,48.88026],[2.41084,48.87842]]]},"properties":{"code":"75-19","nom":"Paris 19e – Buttes-Chaumont"}},{"type":"Feature","geometry":{"type":"Polygon","coordinates":[[[2.41599,48.84661],[2.41361,48.84682],[2.41116,48.84703],[2.40945,48.84719],[2.40631,48.84744],[2.40345,48.84772],[2.39912,48.8481],[2.39926,48.84884],[2.39895,48.84978],[2.39874,48.85041],[2.39843,48.85135],[2.39608,48.85435],[2.39507,48.85564],[2.39444,48.85657],[2.39227,48.85769],[2.3898,48.85843],[2.38963,48.8585],[2.38952,48.8586],[2.38837,48.861],[2.38752,48.86276],[2.38744,48.86291],[2.3873,48.86309],[2.38475,48.86531],[2.38346,48.86645],[2.38308,48.86718],[2.38063,48.86901],[2.37836,48.87079],[2.37798,48.87109],[2.37699,48.87206],[2.37897,48.87261],[2.37955,48.87277],[2.3802,48.87292],[2.38059,48.87301],[2.3819,48.87327],[2.38223,48.87334],[2.3831,48.87348],[2.38445,48.87365],[2.38492,48.87375],[2.38521,48.87386],[2.3863,48.87441],[2.38677,48.8746],[2.38693,48.87464],[2.38744,48.87467],[2.38821,48.87471],[2.38855,48.87479],[2.38898,48.87497],[2.38978,48.87534],[2.3904,48.87545],[2.39177,48.87546],[2.39305,48.87537],[2.39353,48.87535],[2.39533,48.87525],[2.3973,48.87543],[2.39794,48.87545],[2.39893,48.87548],[2.39933,48.87557],[2.40257,48.87601],[2.40597,48.87701],[2.40646,48.87714],[2.40694,48.87722],[2.40808,48.87763],[2.41084,48.87842],[2.4125,48.87638],[2.41362,48.87258],[2.41364,48.87245],[2.41401,48.8689],[2.41386,48.86408],[2.41409,48.86231],[2.41463,48.85906],[2.41523,48.85563],[2.41581,48.85226],[2.41643,48.84879],[2.41599,48.84661]]]},"properties":{"code":"75-20","nom":"Paris 20e – Ménilmontant"}}]}